STARLINK-32578          
1 61979U 24210W   26067.32557356  .00042418  00000+0  15409-2 0  9997
2 61979  42.9997 187.3287 0000726 232.2096 127.8690 15.27606556 74714
2025-313BE              
1 67482U 25313BE  26068.69721505  .00077178  00000+0  26504-2 0  9996
2 67482  97.3989 145.3568 0007208 335.3714  24.7181 15.29801687  7972
